[{"OBJECT_NAME":"NETSAT-1","OBJECT_ID":"2020-068W","EPOCH":"2026-03-09T22:42:38.711232","MEAN_MOTION":15.32042482,"ECCENTRICITY":0.00057337,"INCLINATION":97.8751,"RA_OF_ASC_NODE":63.2583,"ARG_OF_PERICENTER":18.5877,"MEAN_ANOMALY":341.5572,"EPHEMERIS_TYPE":0,"CLASSIFICATION_TYPE":"U","NORAD_CAT_ID":46506,"ELEMENT_SET_NO":999,"REV_AT_EPOCH":30009,"BSTAR":0.00059222329,"MEAN_MOTION_DOT":0.00018269,"MEAN_MOTION_DDOT":0},{"OBJECT_NAME":"STARLINK-32693","OBJECT_ID":"2024-251F","EPOCH":"2026-03-09T22:32:10.583232","MEAN_MOTION":15.30183335,"ECCENTRICITY":0.00018731,"INCLINATION":53.1595,"RA_OF_ASC_NODE":331.4432,"ARG_OF_PERICENTER":133.8454,"MEAN_ANOMALY":226.2702,"EPHEMERIS_TYPE":0,"CLASSIFICATION_TYPE":"U","NORAD_CAT_ID":62437,"ELEMENT_SET_NO":999,"REV_AT_EPOCH":6802,"BSTAR":0.00088500833,"MEAN_MOTION_DOT":0.0002593,"MEAN_MOTION_DDOT":0}]
